IRIDIUM 106             
1 41917U 17003A   24227.50371703  .00000852  00000+0  29732-3 0  9996
2 41917  86.4002   9.2080 0001838  84.9712 275.1694 14.34218663396936
IRIDIUM 103             
1 41918U 17003B   24227.49103641  .00001359  00000+0  47801-3 0  9999
2 41918  86.4000   9.1149 0002533  86.4591 273.6894 14.34219888396963
IRIDIUM 109             
1 41919U 17003C   24226.93923158  .00001311  00000+0  46088-3 0  9995
2 41919  86.3999   9.3937 0002477  97.8929 262.2548 14.34223923396847
IRIDIUM 102             
1 41920U 17003D   24227.46566480  .00000714  00000+0  24799-3 0  9998
2 41920  86.3997   9.1117 0002074  98.0464 262.0967 14.34222984397003
IRIDIUM 105             
1 41921U 17003E   24227.22703889  .00001488  00000+0  52406-3 0  9994
2 41921  86.4019 337.6642 0002293  89.8982 270.2477 14.34241358398822
IRIDIUM 104             
1 41922U 17003F   24227.47834985  .00000183  00000+0  58406-4 0  9992
2 41922  86.3999   9.1387 0002473  96.5485 263.5992 14.34223488396996
IRIDIUM 114             
1 41923U 17003G   24227.48469692  .00001329  00000+0  46729-3 0  9990
2 41923  86.3999   9.1214 0002015  89.0219 271.1208 14.34223125396993
IRIDIUM 108             
1 41924U 17003H   24227.37344378  .00000056  00000+0  12839-4 0  9994
2 41924  86.4013 337.5240 0002036  94.5741 265.5688 14.34225247398834
